[
 {
   "place_name": "Albany-Schenectady-Troy, NY",
   "yr": 1995,
   "index_nsa": 100
 },
 {
   "place_name": "Albany-Schenectady-Troy, NY",
   "yr": 1996,
   "index_nsa": 103.19
 },
 {
   "place_name": "Albany-Schenectady-Troy, NY",
   "yr": 1997,
   "index_nsa": 99.81
 },
 {
   "place_name": "Albany-Schenectady-Troy, NY",
   "yr": 1998,
   "index_nsa": 102.7
 },
 {
   "place_name": "Albany-Schenectady-Troy, NY",
   "yr": 1999,
   "index_nsa": 103.43
 },
 {
   "place_name": "Albany-Schenectady-Troy, NY",
   "yr": 2000,
   "index_nsa": 103.91
 },
 {
   "place_name": "Albany-Schenectady-Troy, NY",
   "yr": 2001,
   "index_nsa": 108.71
 },
 {
   "place_name": "Albany-Schenectady-Troy, NY",
   "yr": 2002,
   "index_nsa": 115.59
 },
 {
   "place_name": "Albany-Schenectady-Troy, NY",
   "yr": 2003,
   "index_nsa": 125.77
 },
 {
   "place_name": "Albany-Schenectady-Troy, NY",
   "yr": 2004,
   "index_nsa": 140.02
 },
 {
   "place_name": "Albany-Schenectady-Troy, NY",
   "yr": 2005,
   "index_nsa": 161.66
 },
 {
   "place_name": "Albany-Schenectady-Troy, NY",
   "yr": 2006,
   "index_nsa": 183.55
 },
 {
   "place_name": "Albany-Schenectady-Troy, NY",
   "yr": 2007,
   "index_nsa": 191.6
 },
 {
   "place_name": "Albany-Schenectady-Troy, NY",
   "yr": 2008,
   "index_nsa": 195.04
 },
 {
   "place_name": "Albany-Schenectady-Troy, NY",
   "yr": 2009,
   "index_nsa": 193.69
 },
 {
   "place_name": "Albany-Schenectady-Troy, NY",
   "yr": 2010,
   "index_nsa": 186.51
 },
 {
   "place_name": "Albany-Schenectady-Troy, NY",
   "yr": 2011,
   "index_nsa": 186.19
 },
 {
   "place_name": "Albany-Schenectady-Troy, NY",
   "yr": 2012,
   "index_nsa": 185.14
 },
 {
   "place_name": "Albany-Schenectady-Troy, NY",
   "yr": 2013,
   "index_nsa": 185.2
 },
 {
   "place_name": "Albany-Schenectady-Troy, NY",
   "yr": 2014,
   "index_nsa": 181.7
 },
 {
   "place_name": "Albany-Schenectady-Troy, NY",
   "yr": 2015,
   "index_nsa": 186.88
 },
 {
   "place_name": "Albany-Schenectady-Troy, NY",
   "yr": 2016,
   "index_nsa": 190.23
 },
 {
   "place_name": "Albany-Schenectady-Troy, NY",
   "yr": 2017,
   "index_nsa": 193.94
 },
 {
   "place_name": "Albany-Schenectady-Troy, NY",
   "yr": 2018,
   "index_nsa": 202.51
 },
 {
   "place_name": "Albany-Schenectady-Troy, NY",
   "yr": 2019,
   "index_nsa": 206.5
 },
 {
   "place_name": "Binghamton, NY",
   "yr": 1995,
   "index_nsa": 100
 },
 {
   "place_name": "Binghamton, NY",
   "yr": 1996,
   "index_nsa": 101.14
 },
 {
   "place_name": "Binghamton, NY",
   "yr": 1997,
   "index_nsa": 97.59
 },
 {
   "place_name": "Binghamton, NY",
   "yr": 1998,
   "index_nsa": 104.98
 },
 {
   "place_name": "Binghamton, NY",
   "yr": 1999,
   "index_nsa": 109.23
 },
 {
   "place_name": "Binghamton, NY",
   "yr": 2000,
   "index_nsa": 107.62
 },
 {
   "place_name": "Binghamton, NY",
   "yr": 2001,
   "index_nsa": 116.33
 },
 {
   "place_name": "Binghamton, NY",
   "yr": 2002,
   "index_nsa": 123.51
 },
 {
   "place_name": "Binghamton, NY",
   "yr": 2003,
   "index_nsa": 127.99
 },
 {
   "place_name": "Binghamton, NY",
   "yr": 2004,
   "index_nsa": 131.27
 },
 {
   "place_name": "Binghamton, NY",
   "yr": 2005,
   "index_nsa": 138.92
 },
 {
   "place_name": "Binghamton, NY",
   "yr": 2006,
   "index_nsa": 154.53
 },
 {
   "place_name": "Binghamton, NY",
   "yr": 2007,
   "index_nsa": 166.31
 },
 {
   "place_name": "Binghamton, NY",
   "yr": 2008,
   "index_nsa": 179.47
 },
 {
   "place_name": "Binghamton, NY",
   "yr": 2009,
   "index_nsa": 181.03
 },
 {
   "place_name": "Binghamton, NY",
   "yr": 2010,
   "index_nsa": 178.4
 },
 {
   "place_name": "Binghamton, NY",
   "yr": 2011,
   "index_nsa": 169.56
 },
 {
   "place_name": "Binghamton, NY",
   "yr": 2012,
   "index_nsa": 167.02
 },
 {
   "place_name": "Binghamton, NY",
   "yr": 2013,
   "index_nsa": 173.3
 },
 {
   "place_name": "Binghamton, NY",
   "yr": 2014,
   "index_nsa": 168.92
 },
 {
   "place_name": "Binghamton, NY",
   "yr": 2015,
   "index_nsa": 166.03
 },
 {
   "place_name": "Binghamton, NY",
   "yr": 2016,
   "index_nsa": 166.58
 },
 {
   "place_name": "Binghamton, NY",
   "yr": 2017,
   "index_nsa": 165.71
 },
 {
   "place_name": "Binghamton, NY",
   "yr": 2018,
   "index_nsa": 173.75
 },
 {
   "place_name": "Binghamton, NY",
   "yr": 2019,
   "index_nsa": 177.04
 },
 {
   "place_name": "Buffalo-Cheektowaga, NY",
   "yr": 1995,
   "index_nsa": 100
 },
 {
   "place_name": "Buffalo-Cheektowaga, NY",
   "yr": 1996,
   "index_nsa": 105.5
 },
 {
   "place_name": "Buffalo-Cheektowaga, NY",
   "yr": 1997,
   "index_nsa": 103.4
 },
 {
   "place_name": "Buffalo-Cheektowaga, NY",
   "yr": 1998,
   "index_nsa": 105.8
 },
 {
   "place_name": "Buffalo-Cheektowaga, NY",
   "yr": 1999,
   "index_nsa": 106.29
 },
 {
   "place_name": "Buffalo-Cheektowaga, NY",
   "yr": 2000,
   "index_nsa": 102.95
 },
 {
   "place_name": "Buffalo-Cheektowaga, NY",
   "yr": 2001,
   "index_nsa": 109.39
 },
 {
   "place_name": "Buffalo-Cheektowaga, NY",
   "yr": 2002,
   "index_nsa": 113.54
 },
 {
   "place_name": "Buffalo-Cheektowaga, NY",
   "yr": 2003,
   "index_nsa": 117.93
 },
 {
   "place_name": "Buffalo-Cheektowaga, NY",
   "yr": 2004,
   "index_nsa": 123.44
 },
 {
   "place_name": "Buffalo-Cheektowaga, NY",
   "yr": 2005,
   "index_nsa": 131.73
 },
 {
   "place_name": "Buffalo-Cheektowaga, NY",
   "yr": 2006,
   "index_nsa": 136.78
 },
 {
   "place_name": "Buffalo-Cheektowaga, NY",
   "yr": 2007,
   "index_nsa": 140.14
 },
 {
   "place_name": "Buffalo-Cheektowaga, NY",
   "yr": 2008,
   "index_nsa": 143.76
 },
 {
   "place_name": "Buffalo-Cheektowaga, NY",
   "yr": 2009,
   "index_nsa": 147.7
 },
 {
   "place_name": "Buffalo-Cheektowaga, NY",
   "yr": 2010,
   "index_nsa": 146.41
 },
 {
   "place_name": "Buffalo-Cheektowaga, NY",
   "yr": 2011,
   "index_nsa": 147.12
 },
 {
   "place_name": "Buffalo-Cheektowaga, NY",
   "yr": 2012,
   "index_nsa": 149.02
 },
 {
   "place_name": "Buffalo-Cheektowaga, NY",
   "yr": 2013,
   "index_nsa": 150.44
 },
 {
   "place_name": "Buffalo-Cheektowaga, NY",
   "yr": 2014,
   "index_nsa": 155.2
 },
 {
   "place_name": "Buffalo-Cheektowaga, NY",
   "yr": 2015,
   "index_nsa": 159.21
 },
 {
   "place_name": "Buffalo-Cheektowaga, NY",
   "yr": 2016,
   "index_nsa": 164.4
 },
 {
   "place_name": "Buffalo-Cheektowaga, NY",
   "yr": 2017,
   "index_nsa": 173.95
 },
 {
   "place_name": "Buffalo-Cheektowaga, NY",
   "yr": 2018,
   "index_nsa": 185.39
 },
 {
   "place_name": "Buffalo-Cheektowaga, NY",
   "yr": 2019,
   "index_nsa": 198.55
 },
 {
   "place_name": "Elmira, NY",
   "yr": 1995,
   "index_nsa": 100
 },
 {
   "place_name": "Elmira, NY",
   "yr": 1996,
   "index_nsa": 102.8
 },
 {
   "place_name": "Elmira, NY",
   "yr": 1997,
   "index_nsa": 98.72
 },
 {
   "place_name": "Elmira, NY",
   "yr": 1998,
   "index_nsa": 104.62
 },
 {
   "place_name": "Elmira, NY",
   "yr": 1999,
   "index_nsa": 107.3
 },
 {
   "place_name": "Elmira, NY",
   "yr": 2000,
   "index_nsa": 109.59
 },
 {
   "place_name": "Elmira, NY",
   "yr": 2001,
   "index_nsa": 117.95
 },
 {
   "place_name": "Elmira, NY",
   "yr": 2002,
   "index_nsa": 119.72
 },
 {
   "place_name": "Elmira, NY",
   "yr": 2003,
   "index_nsa": 125.08
 },
 {
   "place_name": "Elmira, NY",
   "yr": 2004,
   "index_nsa": 126.2
 },
 {
   "place_name": "Elmira, NY",
   "yr": 2005,
   "index_nsa": 133.62
 },
 {
   "place_name": "Elmira, NY",
   "yr": 2006,
   "index_nsa": 139.22
 },
 {
   "place_name": "Elmira, NY",
   "yr": 2007,
   "index_nsa": 147.15
 },
 {
   "place_name": "Elmira, NY",
   "yr": 2008,
   "index_nsa": 149.48
 },
 {
   "place_name": "Elmira, NY",
   "yr": 2009,
   "index_nsa": 157.64
 },
 {
   "place_name": "Elmira, NY",
   "yr": 2010,
   "index_nsa": 157.95
 },
 {
   "place_name": "Elmira, NY",
   "yr": 2011,
   "index_nsa": 158.09
 },
 {
   "place_name": "Elmira, NY",
   "yr": 2012,
   "index_nsa": 163.78
 },
 {
   "place_name": "Elmira, NY",
   "yr": 2013,
   "index_nsa": 160.09
 },
 {
   "place_name": "Elmira, NY",
   "yr": 2014,
   "index_nsa": 162.26
 },
 {
   "place_name": "Elmira, NY",
   "yr": 2015,
   "index_nsa": 166.42
 },
 {
   "place_name": "Elmira, NY",
   "yr": 2016,
   "index_nsa": 158.15
 },
 {
   "place_name": "Elmira, NY",
   "yr": 2017,
   "index_nsa": 168.35
 },
 {
   "place_name": "Elmira, NY",
   "yr": 2018,
   "index_nsa": 168.08
 },
 {
   "place_name": "Elmira, NY",
   "yr": 2019,
   "index_nsa": 169.32
 },
 {
   "place_name": "Glens Falls, NY",
   "yr": 1995,
   "index_nsa": 100
 },
 {
   "place_name": "Glens Falls, NY",
   "yr": 1996,
   "index_nsa": 96.64
 },
 {
   "place_name": "Glens Falls, NY",
   "yr": 1997,
   "index_nsa": 90.85
 },
 {
   "place_name": "Glens Falls, NY",
   "yr": 1998,
   "index_nsa": 100.82
 },
 {
   "place_name": "Glens Falls, NY",
   "yr": 1999,
   "index_nsa": 98.03
 },
 {
   "place_name": "Glens Falls, NY",
   "yr": 2000,
   "index_nsa": 99.18
 },
 {
   "place_name": "Glens Falls, NY",
   "yr": 2001,
   "index_nsa": 104.49
 },
 {
   "place_name": "Glens Falls, NY",
   "yr": 2002,
   "index_nsa": 113.93
 },
 {
   "place_name": "Glens Falls, NY",
   "yr": 2003,
   "index_nsa": 120.3
 },
 {
   "place_name": "Glens Falls, NY",
   "yr": 2004,
   "index_nsa": 136.98
 },
 {
   "place_name": "Glens Falls, NY",
   "yr": 2005,
   "index_nsa": 158.06
 },
 {
   "place_name": "Glens Falls, NY",
   "yr": 2006,
   "index_nsa": 184.95
 },
 {
   "place_name": "Glens Falls, NY",
   "yr": 2007,
   "index_nsa": 194.83
 },
 {
   "place_name": "Glens Falls, NY",
   "yr": 2008,
   "index_nsa": 201.98
 },
 {
   "place_name": "Glens Falls, NY",
   "yr": 2009,
   "index_nsa": 201.3
 },
 {
   "place_name": "Glens Falls, NY",
   "yr": 2010,
   "index_nsa": 186.46
 },
 {
   "place_name": "Glens Falls, NY",
   "yr": 2011,
   "index_nsa": 188.9
 },
 {
   "place_name": "Glens Falls, NY",
   "yr": 2012,
   "index_nsa": 185.65
 },
 {
   "place_name": "Glens Falls, NY",
   "yr": 2013,
   "index_nsa": 181.32
 },
 {
   "place_name": "Glens Falls, NY",
   "yr": 2014,
   "index_nsa": 182.84
 },
 {
   "place_name": "Glens Falls, NY",
   "yr": 2015,
   "index_nsa": 185.75
 },
 {
   "place_name": "Glens Falls, NY",
   "yr": 2016,
   "index_nsa": 178.15
 },
 {
   "place_name": "Glens Falls, NY",
   "yr": 2017,
   "index_nsa": 189.18
 },
 {
   "place_name": "Glens Falls, NY",
   "yr": 2018,
   "index_nsa": 191.89
 },
 {
   "place_name": "Glens Falls, NY",
   "yr": 2019,
   "index_nsa": 197.89
 },
 {
   "place_name": "Ithaca, NY",
   "yr": 1995,
   "index_nsa": 100
 },
 {
   "place_name": "Ithaca, NY",
   "yr": 1996,
   "index_nsa": 104.24
 },
 {
   "place_name": "Ithaca, NY",
   "yr": 1997,
   "index_nsa": 107.94
 },
 {
   "place_name": "Ithaca, NY",
   "yr": 1998,
   "index_nsa": 108.15
 },
 {
   "place_name": "Ithaca, NY",
   "yr": 1999,
   "index_nsa": 110.55
 },
 {
   "place_name": "Ithaca, NY",
   "yr": 2000,
   "index_nsa": 110.49
 },
 {
   "place_name": "Ithaca, NY",
   "yr": 2001,
   "index_nsa": 116.59
 },
 {
   "place_name": "Ithaca, NY",
   "yr": 2002,
   "index_nsa": 122.03
 },
 {
   "place_name": "Ithaca, NY",
   "yr": 2003,
   "index_nsa": 128.48
 },
 {
   "place_name": "Ithaca, NY",
   "yr": 2004,
   "index_nsa": 141.09
 },
 {
   "place_name": "Ithaca, NY",
   "yr": 2005,
   "index_nsa": 153.14
 },
 {
   "place_name": "Ithaca, NY",
   "yr": 2006,
   "index_nsa": 175.67
 },
 {
   "place_name": "Ithaca, NY",
   "yr": 2007,
   "index_nsa": 175.39
 },
 {
   "place_name": "Ithaca, NY",
   "yr": 2008,
   "index_nsa": 188.56
 },
 {
   "place_name": "Ithaca, NY",
   "yr": 2009,
   "index_nsa": 189.34
 },
 {
   "place_name": "Ithaca, NY",
   "yr": 2010,
   "index_nsa": 189.03
 },
 {
   "place_name": "Ithaca, NY",
   "yr": 2011,
   "index_nsa": 194.8
 },
 {
   "place_name": "Ithaca, NY",
   "yr": 2012,
   "index_nsa": 192.48
 },
 {
   "place_name": "Ithaca, NY",
   "yr": 2013,
   "index_nsa": 191.2
 },
 {
   "place_name": "Ithaca, NY",
   "yr": 2014,
   "index_nsa": 196.11
 },
 {
   "place_name": "Ithaca, NY",
   "yr": 2015,
   "index_nsa": 205.03
 },
 {
   "place_name": "Ithaca, NY",
   "yr": 2016,
   "index_nsa": 214.19
 },
 {
   "place_name": "Ithaca, NY",
   "yr": 2017,
   "index_nsa": 223.02
 },
 {
   "place_name": "Ithaca, NY",
   "yr": 2018,
   "index_nsa": 226.04
 },
 {
   "place_name": "Ithaca, NY",
   "yr": 2019,
   "index_nsa": 225.06
 },
 {
   "place_name": "Kingston, NY",
   "yr": 1995,
   "index_nsa": 100
 },
 {
   "place_name": "Kingston, NY",
   "yr": 1996,
   "index_nsa": 107.64
 },
 {
   "place_name": "Kingston, NY",
   "yr": 1997,
   "index_nsa": 105.78
 },
 {
   "place_name": "Kingston, NY",
   "yr": 1998,
   "index_nsa": 114.53
 },
 {
   "place_name": "Kingston, NY",
   "yr": 1999,
   "index_nsa": 114.96
 },
 {
   "place_name": "Kingston, NY",
   "yr": 2000,
   "index_nsa": 122.54
 },
 {
   "place_name": "Kingston, NY",
   "yr": 2001,
   "index_nsa": 141.76
 },
 {
   "place_name": "Kingston, NY",
   "yr": 2002,
   "index_nsa": 152.92
 },
 {
   "place_name": "Kingston, NY",
   "yr": 2003,
   "index_nsa": 174.24
 },
 {
   "place_name": "Kingston, NY",
   "yr": 2004,
   "index_nsa": 200.43
 },
 {
   "place_name": "Kingston, NY",
   "yr": 2005,
   "index_nsa": 234.45
 },
 {
   "place_name": "Kingston, NY",
   "yr": 2006,
   "index_nsa": 261.22
 },
 {
   "place_name": "Kingston, NY",
   "yr": 2007,
   "index_nsa": 266.63
 },
 {
   "place_name": "Kingston, NY",
   "yr": 2008,
   "index_nsa": 262.5
 },
 {
   "place_name": "Kingston, NY",
   "yr": 2009,
   "index_nsa": 252.57
 },
 {
   "place_name": "Kingston, NY",
   "yr": 2010,
   "index_nsa": 236.9
 },
 {
   "place_name": "Kingston, NY",
   "yr": 2011,
   "index_nsa": 229.04
 },
 {
   "place_name": "Kingston, NY",
   "yr": 2012,
   "index_nsa": 224.68
 },
 {
   "place_name": "Kingston, NY",
   "yr": 2013,
   "index_nsa": 214.75
 },
 {
   "place_name": "Kingston, NY",
   "yr": 2014,
   "index_nsa": 215.86
 },
 {
   "place_name": "Kingston, NY",
   "yr": 2015,
   "index_nsa": 219.97
 },
 {
   "place_name": "Kingston, NY",
   "yr": 2016,
   "index_nsa": 213.34
 },
 {
   "place_name": "Kingston, NY",
   "yr": 2017,
   "index_nsa": 225.27
 },
 {
   "place_name": "Kingston, NY",
   "yr": 2018,
   "index_nsa": 243.71
 },
 {
   "place_name": "Kingston, NY",
   "yr": 2019,
   "index_nsa": 248.98
 },
 {
   "place_name": "Nassau County-Suffolk County, NY (MSAD)",
   "yr": 1995,
   "index_nsa": 100
 },
 {
   "place_name": "Nassau County-Suffolk County, NY (MSAD)",
   "yr": 1996,
   "index_nsa": 104.52
 },
 {
   "place_name": "Nassau County-Suffolk County, NY (MSAD)",
   "yr": 1997,
   "index_nsa": 104.74
 },
 {
   "place_name": "Nassau County-Suffolk County, NY (MSAD)",
   "yr": 1998,
   "index_nsa": 111.18
 },
 {
   "place_name": "Nassau County-Suffolk County, NY (MSAD)",
   "yr": 1999,
   "index_nsa": 118.81
 },
 {
   "place_name": "Nassau County-Suffolk County, NY (MSAD)",
   "yr": 2000,
   "index_nsa": 136.74
 },
 {
   "place_name": "Nassau County-Suffolk County, NY (MSAD)",
   "yr": 2001,
   "index_nsa": 153.49
 },
 {
   "place_name": "Nassau County-Suffolk County, NY (MSAD)",
   "yr": 2002,
   "index_nsa": 173.25
 },
 {
   "place_name": "Nassau County-Suffolk County, NY (MSAD)",
   "yr": 2003,
   "index_nsa": 198.91
 },
 {
   "place_name": "Nassau County-Suffolk County, NY (MSAD)",
   "yr": 2004,
   "index_nsa": 225.49
 },
 {
   "place_name": "Nassau County-Suffolk County, NY (MSAD)",
   "yr": 2005,
   "index_nsa": 261.34
 },
 {
   "place_name": "Nassau County-Suffolk County, NY (MSAD)",
   "yr": 2006,
   "index_nsa": 293.4
 },
 {
   "place_name": "Nassau County-Suffolk County, NY (MSAD)",
   "yr": 2007,
   "index_nsa": 295.52
 },
 {
   "place_name": "Nassau County-Suffolk County, NY (MSAD)",
   "yr": 2008,
   "index_nsa": 285.72
 },
 {
   "place_name": "Nassau County-Suffolk County, NY (MSAD)",
   "yr": 2009,
   "index_nsa": 267.2
 },
 {
   "place_name": "Nassau County-Suffolk County, NY (MSAD)",
   "yr": 2010,
   "index_nsa": 247.05
 },
 {
   "place_name": "Nassau County-Suffolk County, NY (MSAD)",
   "yr": 2011,
   "index_nsa": 244.55
 },
 {
   "place_name": "Nassau County-Suffolk County, NY (MSAD)",
   "yr": 2012,
   "index_nsa": 237.51
 },
 {
   "place_name": "Nassau County-Suffolk County, NY (MSAD)",
   "yr": 2013,
   "index_nsa": 235.44
 },
 {
   "place_name": "Nassau County-Suffolk County, NY (MSAD)",
   "yr": 2014,
   "index_nsa": 238.91
 },
 {
   "place_name": "Nassau County-Suffolk County, NY (MSAD)",
   "yr": 2015,
   "index_nsa": 250.46
 },
 {
   "place_name": "Nassau County-Suffolk County, NY (MSAD)",
   "yr": 2016,
   "index_nsa": 256.88
 },
 {
   "place_name": "Nassau County-Suffolk County, NY (MSAD)",
   "yr": 2017,
   "index_nsa": 268.25
 },
 {
   "place_name": "Nassau County-Suffolk County, NY (MSAD)",
   "yr": 2018,
   "index_nsa": 289.72
 },
 {
   "place_name": "Nassau County-Suffolk County, NY (MSAD)",
   "yr": 2019,
   "index_nsa": 305.57
 },
 {
   "place_name": "New York-Jersey City-White Plains, NY-NJ (MSAD)",
   "yr": 1995,
   "index_nsa": 100
 },
 {
   "place_name": "New York-Jersey City-White Plains, NY-NJ (MSAD)",
   "yr": 1996,
   "index_nsa": 104.65
 },
 {
   "place_name": "New York-Jersey City-White Plains, NY-NJ (MSAD)",
   "yr": 1997,
   "index_nsa": 104.7
 },
 {
   "place_name": "New York-Jersey City-White Plains, NY-NJ (MSAD)",
   "yr": 1998,
   "index_nsa": 110.19
 },
 {
   "place_name": "New York-Jersey City-White Plains, NY-NJ (MSAD)",
   "yr": 1999,
   "index_nsa": 116.43
 },
 {
   "place_name": "New York-Jersey City-White Plains, NY-NJ (MSAD)",
   "yr": 2000,
   "index_nsa": 129.73
 },
 {
   "place_name": "New York-Jersey City-White Plains, NY-NJ (MSAD)",
   "yr": 2001,
   "index_nsa": 144.06
 },
 {
   "place_name": "New York-Jersey City-White Plains, NY-NJ (MSAD)",
   "yr": 2002,
   "index_nsa": 159.47
 },
 {
   "place_name": "New York-Jersey City-White Plains, NY-NJ (MSAD)",
   "yr": 2003,
   "index_nsa": 177.92
 },
 {
   "place_name": "New York-Jersey City-White Plains, NY-NJ (MSAD)",
   "yr": 2004,
   "index_nsa": 198.72
 },
 {
   "place_name": "New York-Jersey City-White Plains, NY-NJ (MSAD)",
   "yr": 2005,
   "index_nsa": 231.01
 },
 {
   "place_name": "New York-Jersey City-White Plains, NY-NJ (MSAD)",
   "yr": 2006,
   "index_nsa": 263.62
 },
 {
   "place_name": "New York-Jersey City-White Plains, NY-NJ (MSAD)",
   "yr": 2007,
   "index_nsa": 270.68
 },
 {
   "place_name": "New York-Jersey City-White Plains, NY-NJ (MSAD)",
   "yr": 2008,
   "index_nsa": 265.87
 },
 {
   "place_name": "New York-Jersey City-White Plains, NY-NJ (MSAD)",
   "yr": 2009,
   "index_nsa": 248.52
 },
 {
   "place_name": "New York-Jersey City-White Plains, NY-NJ (MSAD)",
   "yr": 2010,
   "index_nsa": 231.89
 },
 {
   "place_name": "New York-Jersey City-White Plains, NY-NJ (MSAD)",
   "yr": 2011,
   "index_nsa": 229.06
 },
 {
   "place_name": "New York-Jersey City-White Plains, NY-NJ (MSAD)",
   "yr": 2012,
   "index_nsa": 223.82
 },
 {
   "place_name": "New York-Jersey City-White Plains, NY-NJ (MSAD)",
   "yr": 2013,
   "index_nsa": 223.6
 },
 {
   "place_name": "New York-Jersey City-White Plains, NY-NJ (MSAD)",
   "yr": 2014,
   "index_nsa": 228.35
 },
 {
   "place_name": "New York-Jersey City-White Plains, NY-NJ (MSAD)",
   "yr": 2015,
   "index_nsa": 238.61
 },
 {
   "place_name": "New York-Jersey City-White Plains, NY-NJ (MSAD)",
   "yr": 2016,
   "index_nsa": 248.12
 },
 {
   "place_name": "New York-Jersey City-White Plains, NY-NJ (MSAD)",
   "yr": 2017,
   "index_nsa": 262.95
 },
 {
   "place_name": "New York-Jersey City-White Plains, NY-NJ (MSAD)",
   "yr": 2018,
   "index_nsa": 279.92
 },
 {
   "place_name": "New York-Jersey City-White Plains, NY-NJ (MSAD)",
   "yr": 2019,
   "index_nsa": 291.01
 },
 {
   "place_name": "Poughkeepsie-Newburgh-Middletown, NY",
   "yr": 1995,
   "index_nsa": 100
 },
 {
   "place_name": "Poughkeepsie-Newburgh-Middletown, NY",
   "yr": 1996,
   "index_nsa": 105.14
 },
 {
   "place_name": "Poughkeepsie-Newburgh-Middletown, NY",
   "yr": 1997,
   "index_nsa": 103.43
 },
 {
   "place_name": "Poughkeepsie-Newburgh-Middletown, NY",
   "yr": 1998,
   "index_nsa": 108.56
 },
 {
   "place_name": "Poughkeepsie-Newburgh-Middletown, NY",
   "yr": 1999,
   "index_nsa": 112.86
 },
 {
   "place_name": "Poughkeepsie-Newburgh-Middletown, NY",
   "yr": 2000,
   "index_nsa": 121.4
 },
 {
   "place_name": "Poughkeepsie-Newburgh-Middletown, NY",
   "yr": 2001,
   "index_nsa": 132.22
 },
 {
   "place_name": "Poughkeepsie-Newburgh-Middletown, NY",
   "yr": 2002,
   "index_nsa": 148.75
 },
 {
   "place_name": "Poughkeepsie-Newburgh-Middletown, NY",
   "yr": 2003,
   "index_nsa": 169.45
 },
 {
   "place_name": "Poughkeepsie-Newburgh-Middletown, NY",
   "yr": 2004,
   "index_nsa": 193.35
 },
 {
   "place_name": "Poughkeepsie-Newburgh-Middletown, NY",
   "yr": 2005,
   "index_nsa": 224.48
 },
 {
   "place_name": "Poughkeepsie-Newburgh-Middletown, NY",
   "yr": 2006,
   "index_nsa": 246.75
 },
 {
   "place_name": "Poughkeepsie-Newburgh-Middletown, NY",
   "yr": 2007,
   "index_nsa": 249.19
 },
 {
   "place_name": "Poughkeepsie-Newburgh-Middletown, NY",
   "yr": 2008,
   "index_nsa": 240.08
 },
 {
   "place_name": "Poughkeepsie-Newburgh-Middletown, NY",
   "yr": 2009,
   "index_nsa": 222.78
 },
 {
   "place_name": "Poughkeepsie-Newburgh-Middletown, NY",
   "yr": 2010,
   "index_nsa": 203.79
 },
 {
   "place_name": "Poughkeepsie-Newburgh-Middletown, NY",
   "yr": 2011,
   "index_nsa": 197.45
 },
 {
   "place_name": "Poughkeepsie-Newburgh-Middletown, NY",
   "yr": 2012,
   "index_nsa": 188.26
 },
 {
   "place_name": "Poughkeepsie-Newburgh-Middletown, NY",
   "yr": 2013,
   "index_nsa": 181.91
 },
 {
   "place_name": "Poughkeepsie-Newburgh-Middletown, NY",
   "yr": 2014,
   "index_nsa": 180.45
 },
 {
   "place_name": "Poughkeepsie-Newburgh-Middletown, NY",
   "yr": 2015,
   "index_nsa": 183.42
 },
 {
   "place_name": "Poughkeepsie-Newburgh-Middletown, NY",
   "yr": 2016,
   "index_nsa": 182.54
 },
 {
   "place_name": "Poughkeepsie-Newburgh-Middletown, NY",
   "yr": 2017,
   "index_nsa": 189.46
 },
 {
   "place_name": "Poughkeepsie-Newburgh-Middletown, NY",
   "yr": 2018,
   "index_nsa": 203.86
 },
 {
   "place_name": "Poughkeepsie-Newburgh-Middletown, NY",
   "yr": 2019,
   "index_nsa": 216.59
 },
 {
   "place_name": "Rochester, NY",
   "yr": 1995,
   "index_nsa": 100
 },
 {
   "place_name": "Rochester, NY",
   "yr": 1996,
   "index_nsa": 103.62
 },
 {
   "place_name": "Rochester, NY",
   "yr": 1997,
   "index_nsa": 101.9
 },
 {
   "place_name": "Rochester, NY",
   "yr": 1998,
   "index_nsa": 104.75
 },
 {
   "place_name": "Rochester, NY",
   "yr": 1999,
   "index_nsa": 106.68
 },
 {
   "place_name": "Rochester, NY",
   "yr": 2000,
   "index_nsa": 105.8
 },
 {
   "place_name": "Rochester, NY",
   "yr": 2001,
   "index_nsa": 110.6
 },
 {
   "place_name": "Rochester, NY",
   "yr": 2002,
   "index_nsa": 114.86
 },
 {
   "place_name": "Rochester, NY",
   "yr": 2003,
   "index_nsa": 119.1
 },
 {
   "place_name": "Rochester, NY",
   "yr": 2004,
   "index_nsa": 123.95
 },
 {
   "place_name": "Rochester, NY",
   "yr": 2005,
   "index_nsa": 128.5
 },
 {
   "place_name": "Rochester, NY",
   "yr": 2006,
   "index_nsa": 132.92
 },
 {
   "place_name": "Rochester, NY",
   "yr": 2007,
   "index_nsa": 135.17
 },
 {
   "place_name": "Rochester, NY",
   "yr": 2008,
   "index_nsa": 138.5
 },
 {
   "place_name": "Rochester, NY",
   "yr": 2009,
   "index_nsa": 140.44
 },
 {
   "place_name": "Rochester, NY",
   "yr": 2010,
   "index_nsa": 139.32
 },
 {
   "place_name": "Rochester, NY",
   "yr": 2011,
   "index_nsa": 138.92
 },
 {
   "place_name": "Rochester, NY",
   "yr": 2012,
   "index_nsa": 139.05
 },
 {
   "place_name": "Rochester, NY",
   "yr": 2013,
   "index_nsa": 140.12
 },
 {
   "place_name": "Rochester, NY",
   "yr": 2014,
   "index_nsa": 138.91
 },
 {
   "place_name": "Rochester, NY",
   "yr": 2015,
   "index_nsa": 142.76
 },
 {
   "place_name": "Rochester, NY",
   "yr": 2016,
   "index_nsa": 145.67
 },
 {
   "place_name": "Rochester, NY",
   "yr": 2017,
   "index_nsa": 149.48
 },
 {
   "place_name": "Rochester, NY",
   "yr": 2018,
   "index_nsa": 156.83
 },
 {
   "place_name": "Rochester, NY",
   "yr": 2019,
   "index_nsa": 165.51
 },
 {
   "place_name": "Syracuse, NY",
   "yr": 1995,
   "index_nsa": 100
 },
 {
   "place_name": "Syracuse, NY",
   "yr": 1996,
   "index_nsa": 102.58
 },
 {
   "place_name": "Syracuse, NY",
   "yr": 1997,
   "index_nsa": 98.72
 },
 {
   "place_name": "Syracuse, NY",
   "yr": 1998,
   "index_nsa": 102.3
 },
 {
   "place_name": "Syracuse, NY",
   "yr": 1999,
   "index_nsa": 104.54
 },
 {
   "place_name": "Syracuse, NY",
   "yr": 2000,
   "index_nsa": 104.68
 },
 {
   "place_name": "Syracuse, NY",
   "yr": 2001,
   "index_nsa": 110.74
 },
 {
   "place_name": "Syracuse, NY",
   "yr": 2002,
   "index_nsa": 116.65
 },
 {
   "place_name": "Syracuse, NY",
   "yr": 2003,
   "index_nsa": 123.83
 },
 {
   "place_name": "Syracuse, NY",
   "yr": 2004,
   "index_nsa": 130.71
 },
 {
   "place_name": "Syracuse, NY",
   "yr": 2005,
   "index_nsa": 139.71
 },
 {
   "place_name": "Syracuse, NY",
   "yr": 2006,
   "index_nsa": 149.76
 },
 {
   "place_name": "Syracuse, NY",
   "yr": 2007,
   "index_nsa": 153.32
 },
 {
   "place_name": "Syracuse, NY",
   "yr": 2008,
   "index_nsa": 158.92
 },
 {
   "place_name": "Syracuse, NY",
   "yr": 2009,
   "index_nsa": 159.48
 },
 {
   "place_name": "Syracuse, NY",
   "yr": 2010,
   "index_nsa": 157.4
 },
 {
   "place_name": "Syracuse, NY",
   "yr": 2011,
   "index_nsa": 156.8
 },
 {
   "place_name": "Syracuse, NY",
   "yr": 2012,
   "index_nsa": 156.96
 },
 {
   "place_name": "Syracuse, NY",
   "yr": 2013,
   "index_nsa": 155.27
 },
 {
   "place_name": "Syracuse, NY",
   "yr": 2014,
   "index_nsa": 153.62
 },
 {
   "place_name": "Syracuse, NY",
   "yr": 2015,
   "index_nsa": 158.02
 },
 {
   "place_name": "Syracuse, NY",
   "yr": 2016,
   "index_nsa": 163.38
 },
 {
   "place_name": "Syracuse, NY",
   "yr": 2017,
   "index_nsa": 164.47
 },
 {
   "place_name": "Syracuse, NY",
   "yr": 2018,
   "index_nsa": 171.66
 },
 {
   "place_name": "Syracuse, NY",
   "yr": 2019,
   "index_nsa": 177.55
 },
 {
   "place_name": "Utica-Rome, NY",
   "yr": 1995,
   "index_nsa": 100
 },
 {
   "place_name": "Utica-Rome, NY",
   "yr": 1996,
   "index_nsa": 100.87
 },
 {
   "place_name": "Utica-Rome, NY",
   "yr": 1997,
   "index_nsa": 98.71
 },
 {
   "place_name": "Utica-Rome, NY",
   "yr": 1998,
   "index_nsa": 99.63
 },
 {
   "place_name": "Utica-Rome, NY",
   "yr": 1999,
   "index_nsa": 102.6
 },
 {
   "place_name": "Utica-Rome, NY",
   "yr": 2000,
   "index_nsa": 99.3
 },
 {
   "place_name": "Utica-Rome, NY",
   "yr": 2001,
   "index_nsa": 111.42
 },
 {
   "place_name": "Utica-Rome, NY",
   "yr": 2002,
   "index_nsa": 114.91
 },
 {
   "place_name": "Utica-Rome, NY",
   "yr": 2003,
   "index_nsa": 121.19
 },
 {
   "place_name": "Utica-Rome, NY",
   "yr": 2004,
   "index_nsa": 128.23
 },
 {
   "place_name": "Utica-Rome, NY",
   "yr": 2005,
   "index_nsa": 142.09
 },
 {
   "place_name": "Utica-Rome, NY",
   "yr": 2006,
   "index_nsa": 148.8
 },
 {
   "place_name": "Utica-Rome, NY",
   "yr": 2007,
   "index_nsa": 157.57
 },
 {
   "place_name": "Utica-Rome, NY",
   "yr": 2008,
   "index_nsa": 167.62
 },
 {
   "place_name": "Utica-Rome, NY",
   "yr": 2009,
   "index_nsa": 168.49
 },
 {
   "place_name": "Utica-Rome, NY",
   "yr": 2010,
   "index_nsa": 167.34
 },
 {
   "place_name": "Utica-Rome, NY",
   "yr": 2011,
   "index_nsa": 168.5
 },
 {
   "place_name": "Utica-Rome, NY",
   "yr": 2012,
   "index_nsa": 166.64
 },
 {
   "place_name": "Utica-Rome, NY",
   "yr": 2013,
   "index_nsa": 169
 },
 {
   "place_name": "Utica-Rome, NY",
   "yr": 2014,
   "index_nsa": 164.69
 },
 {
   "place_name": "Utica-Rome, NY",
   "yr": 2015,
   "index_nsa": 169.19
 },
 {
   "place_name": "Utica-Rome, NY",
   "yr": 2016,
   "index_nsa": 171.24
 },
 {
   "place_name": "Utica-Rome, NY",
   "yr": 2017,
   "index_nsa": 171.11
 },
 {
   "place_name": "Utica-Rome, NY",
   "yr": 2018,
   "index_nsa": 186.04
 },
 {
   "place_name": "Utica-Rome, NY",
   "yr": 2019,
   "index_nsa": 198.68
 },
 {
   "place_name": "Watertown-Fort Drum, NY",
   "yr": 1995,
   "index_nsa": 100
 },
 {
   "place_name": "Watertown-Fort Drum, NY",
   "yr": 1996,
   "index_nsa": 94.8
 },
 {
   "place_name": "Watertown-Fort Drum, NY",
   "yr": 1997,
   "index_nsa": 97.7
 },
 {
   "place_name": "Watertown-Fort Drum, NY",
   "yr": 1998,
   "index_nsa": 106.25
 },
 {
   "place_name": "Watertown-Fort Drum, NY",
   "yr": 1999,
   "index_nsa": 104.79
 },
 {
   "place_name": "Watertown-Fort Drum, NY",
   "yr": 2000,
   "index_nsa": 103.82
 },
 {
   "place_name": "Watertown-Fort Drum, NY",
   "yr": 2001,
   "index_nsa": 111.49
 },
 {
   "place_name": "Watertown-Fort Drum, NY",
   "yr": 2002,
   "index_nsa": 113.46
 },
 {
   "place_name": "Watertown-Fort Drum, NY",
   "yr": 2003,
   "index_nsa": 121.4
 },
 {
   "place_name": "Watertown-Fort Drum, NY",
   "yr": 2004,
   "index_nsa": 132.66
 },
 {
   "place_name": "Watertown-Fort Drum, NY",
   "yr": 2005,
   "index_nsa": 143.95
 },
 {
   "place_name": "Watertown-Fort Drum, NY",
   "yr": 2006,
   "index_nsa": 170.06
 },
 {
   "place_name": "Watertown-Fort Drum, NY",
   "yr": 2007,
   "index_nsa": 196.39
 },
 {
   "place_name": "Watertown-Fort Drum, NY",
   "yr": 2008,
   "index_nsa": 198.87
 },
 {
   "place_name": "Watertown-Fort Drum, NY",
   "yr": 2009,
   "index_nsa": 205.43
 },
 {
   "place_name": "Watertown-Fort Drum, NY",
   "yr": 2010,
   "index_nsa": 215.71
 },
 {
   "place_name": "Watertown-Fort Drum, NY",
   "yr": 2011,
   "index_nsa": 202.98
 },
 {
   "place_name": "Watertown-Fort Drum, NY",
   "yr": 2012,
   "index_nsa": 212.6
 },
 {
   "place_name": "Watertown-Fort Drum, NY",
   "yr": 2013,
   "index_nsa": 213.78
 },
 {
   "place_name": "Watertown-Fort Drum, NY",
   "yr": 2014,
   "index_nsa": 208.05
 },
 {
   "place_name": "Watertown-Fort Drum, NY",
   "yr": 2015,
   "index_nsa": 221.13
 },
 {
   "place_name": "Watertown-Fort Drum, NY",
   "yr": 2016,
   "index_nsa": 206.18
 },
 {
   "place_name": "Watertown-Fort Drum, NY",
   "yr": 2017,
   "index_nsa": 208.61
 },
 {
   "place_name": "Watertown-Fort Drum, NY",
   "yr": 2018,
   "index_nsa": 222.38
 },
 {
   "place_name": "Watertown-Fort Drum, NY",
   "yr": 2019,
   "index_nsa": 226.82
 },
 {
   "place_name": "Nassau County-Suffolk County, NY (MSAD)",
   "yr": 1995,
   "index_nsa": 98.41
 },
 {
   "place_name": "Nassau County-Suffolk County, NY (MSAD)",
   "yr": 1996,
   "index_nsa": 100.95
 },
 {
   "place_name": "Nassau County-Suffolk County, NY (MSAD)",
   "yr": 1997,
   "index_nsa": 103.22
 },
 {
   "place_name": "Nassau County-Suffolk County, NY (MSAD)",
   "yr": 1998,
   "index_nsa": 107.11
 },
 {
   "place_name": "Nassau County-Suffolk County, NY (MSAD)",
   "yr": 1999,
   "index_nsa": 119.1
 },
 {
   "place_name": "Nassau County-Suffolk County, NY (MSAD)",
   "yr": 2000,
   "index_nsa": 136.6
 },
 {
   "place_name": "Nassau County-Suffolk County, NY (MSAD)",
   "yr": 2001,
   "index_nsa": 151.42
 },
 {
   "place_name": "Nassau County-Suffolk County, NY (MSAD)",
   "yr": 2002,
   "index_nsa": 173.18
 },
 {
   "place_name": "Nassau County-Suffolk County, NY (MSAD)",
   "yr": 2003,
   "index_nsa": 206.19
 },
 {
   "place_name": "Nassau County-Suffolk County, NY (MSAD)",
   "yr": 2004,
   "index_nsa": 230.93
 },
 {
   "place_name": "Nassau County-Suffolk County, NY (MSAD)",
   "yr": 2005,
   "index_nsa": 265
 },
 {
   "place_name": "Nassau County-Suffolk County, NY (MSAD)",
   "yr": 2006,
   "index_nsa": 298.43
 },
 {
   "place_name": "Nassau County-Suffolk County, NY (MSAD)",
   "yr": 2007,
   "index_nsa": 300.67
 },
 {
   "place_name": "Nassau County-Suffolk County, NY (MSAD)",
   "yr": 2008,
   "index_nsa": 271.75
 },
 {
   "place_name": "Nassau County-Suffolk County, NY (MSAD)",
   "yr": 2009,
   "index_nsa": 237.06
 },
 {
   "place_name": "Nassau County-Suffolk County, NY (MSAD)",
   "yr": 2010,
   "index_nsa": 223.53
 },
 {
   "place_name": "Nassau County-Suffolk County, NY (MSAD)",
   "yr": 2011,
   "index_nsa": 211.44
 },
 {
   "place_name": "Nassau County-Suffolk County, NY (MSAD)",
   "yr": 2012,
   "index_nsa": 208.23
 },
 {
   "place_name": "Nassau County-Suffolk County, NY (MSAD)",
   "yr": 2013,
   "index_nsa": 214.35
 },
 {
   "place_name": "Nassau County-Suffolk County, NY (MSAD)",
   "yr": 2014,
   "index_nsa": 222.14
 },
 {
   "place_name": "Nassau County-Suffolk County, NY (MSAD)",
   "yr": 2015,
   "index_nsa": 231.1
 },
 {
   "place_name": "Nassau County-Suffolk County, NY (MSAD)",
   "yr": 2016,
   "index_nsa": 236.89
 },
 {
   "place_name": "Nassau County-Suffolk County, NY (MSAD)",
   "yr": 2017,
   "index_nsa": 252.35
 },
 {
   "place_name": "Nassau County-Suffolk County, NY (MSAD)",
   "yr": 2018,
   "index_nsa": 270.14
 },
 {
   "place_name": "Nassau County-Suffolk County, NY (MSAD)",
   "yr": 2019,
   "index_nsa": 288.56
 },
 {
   "place_name": "New York-Jersey City-White Plains, NY-NJ (MSAD)",
   "yr": 1995,
   "index_nsa": 98.7
 },
 {
   "place_name": "New York-Jersey City-White Plains, NY-NJ (MSAD)",
   "yr": 1996,
   "index_nsa": 99.36
 },
 {
   "place_name": "New York-Jersey City-White Plains, NY-NJ (MSAD)",
   "yr": 1997,
   "index_nsa": 101.79
 },
 {
   "place_name": "New York-Jersey City-White Plains, NY-NJ (MSAD)",
   "yr": 1998,
   "index_nsa": 106.33
 },
 {
   "place_name": "New York-Jersey City-White Plains, NY-NJ (MSAD)",
   "yr": 1999,
   "index_nsa": 115.51
 },
 {
   "place_name": "New York-Jersey City-White Plains, NY-NJ (MSAD)",
   "yr": 2000,
   "index_nsa": 125.59
 },
 {
   "place_name": "New York-Jersey City-White Plains, NY-NJ (MSAD)",
   "yr": 2001,
   "index_nsa": 141.27
 },
 {
   "place_name": "New York-Jersey City-White Plains, NY-NJ (MSAD)",
   "yr": 2002,
   "index_nsa": 159.83
 },
 {
   "place_name": "New York-Jersey City-White Plains, NY-NJ (MSAD)",
   "yr": 2003,
   "index_nsa": 185.29
 },
 {
   "place_name": "New York-Jersey City-White Plains, NY-NJ (MSAD)",
   "yr": 2004,
   "index_nsa": 206.87
 },
 {
   "place_name": "New York-Jersey City-White Plains, NY-NJ (MSAD)",
   "yr": 2005,
   "index_nsa": 228.24
 },
 {
   "place_name": "New York-Jersey City-White Plains, NY-NJ (MSAD)",
   "yr": 2006,
   "index_nsa": 264.43
 },
 {
   "place_name": "New York-Jersey City-White Plains, NY-NJ (MSAD)",
   "yr": 2007,
   "index_nsa": 274.48
 },
 {
   "place_name": "New York-Jersey City-White Plains, NY-NJ (MSAD)",
   "yr": 2008,
   "index_nsa": 255.11
 },
 {
   "place_name": "New York-Jersey City-White Plains, NY-NJ (MSAD)",
   "yr": 2009,
   "index_nsa": 221.77
 },
 {
   "place_name": "New York-Jersey City-White Plains, NY-NJ (MSAD)",
   "yr": 2010,
   "index_nsa": 209.64
 },
 {
   "place_name": "New York-Jersey City-White Plains, NY-NJ (MSAD)",
   "yr": 2011,
   "index_nsa": 197.49
 },
 {
   "place_name": "New York-Jersey City-White Plains, NY-NJ (MSAD)",
   "yr": 2012,
   "index_nsa": 195.16
 },
 {
   "place_name": "New York-Jersey City-White Plains, NY-NJ (MSAD)",
   "yr": 2013,
   "index_nsa": 201.82
 },
 {
   "place_name": "New York-Jersey City-White Plains, NY-NJ (MSAD)",
   "yr": 2014,
   "index_nsa": 211.08
 },
 {
   "place_name": "New York-Jersey City-White Plains, NY-NJ (MSAD)",
   "yr": 2015,
   "index_nsa": 218.83
 },
 {
   "place_name": "New York-Jersey City-White Plains, NY-NJ (MSAD)",
   "yr": 2016,
   "index_nsa": 228.62
 },
 {
   "place_name": "New York-Jersey City-White Plains, NY-NJ (MSAD)",
   "yr": 2017,
   "index_nsa": 241.96
 },
 {
   "place_name": "New York-Jersey City-White Plains, NY-NJ (MSAD)",
   "yr": 2018,
   "index_nsa": 261.08
 },
 {
   "place_name": "New York-Jersey City-White Plains, NY-NJ (MSAD)",
   "yr": 2019,
   "index_nsa": 272.79
 },
 {
   "place_name": "Albany-Schenectady-Troy, NY",
   "yr": 1995,
   "index_nsa": 96.11
 },
 {
   "place_name": "Albany-Schenectady-Troy, NY",
   "yr": 1996,
   "index_nsa": 91.6
 },
 {
   "place_name": "Albany-Schenectady-Troy, NY",
   "yr": 1997,
   "index_nsa": 92.91
 },
 {
   "place_name": "Albany-Schenectady-Troy, NY",
   "yr": 1998,
   "index_nsa": 91.06
 },
 {
   "place_name": "Albany-Schenectady-Troy, NY",
   "yr": 1999,
   "index_nsa": 93.05
 },
 {
   "place_name": "Albany-Schenectady-Troy, NY",
   "yr": 2000,
   "index_nsa": 96.36
 },
 {
   "place_name": "Albany-Schenectady-Troy, NY",
   "yr": 2001,
   "index_nsa": 100.13
 },
 {
   "place_name": "Albany-Schenectady-Troy, NY",
   "yr": 2002,
   "index_nsa": 108.59
 },
 {
   "place_name": "Albany-Schenectady-Troy, NY",
   "yr": 2003,
   "index_nsa": 120.76
 },
 {
   "place_name": "Albany-Schenectady-Troy, NY",
   "yr": 2004,
   "index_nsa": 136.63
 },
 {
   "place_name": "Albany-Schenectady-Troy, NY",
   "yr": 2005,
   "index_nsa": 156.23
 },
 {
   "place_name": "Albany-Schenectady-Troy, NY",
   "yr": 2006,
   "index_nsa": 175.17
 },
 {
   "place_name": "Albany-Schenectady-Troy, NY",
   "yr": 2007,
   "index_nsa": 181.03
 },
 {
   "place_name": "Albany-Schenectady-Troy, NY",
   "yr": 2008,
   "index_nsa": 178.45
 },
 {
   "place_name": "Albany-Schenectady-Troy, NY",
   "yr": 2009,
   "index_nsa": 172.7
 },
 {
   "place_name": "Albany-Schenectady-Troy, NY",
   "yr": 2010,
   "index_nsa": 171.8
 },
 {
   "place_name": "Albany-Schenectady-Troy, NY",
   "yr": 2011,
   "index_nsa": 165.39
 },
 {
   "place_name": "Albany-Schenectady-Troy, NY",
   "yr": 2012,
   "index_nsa": 170.35
 },
 {
   "place_name": "Albany-Schenectady-Troy, NY",
   "yr": 2013,
   "index_nsa": 169.5
 },
 {
   "place_name": "Albany-Schenectady-Troy, NY",
   "yr": 2014,
   "index_nsa": 173.62
 },
 {
   "place_name": "Albany-Schenectady-Troy, NY",
   "yr": 2015,
   "index_nsa": 177.25
 },
 {
   "place_name": "Albany-Schenectady-Troy, NY",
   "yr": 2016,
   "index_nsa": 180.09
 },
 {
   "place_name": "Albany-Schenectady-Troy, NY",
   "yr": 2017,
   "index_nsa": 183.95
 },
 {
   "place_name": "Albany-Schenectady-Troy, NY",
   "yr": 2018,
   "index_nsa": 195.54
 },
 {
   "place_name": "Albany-Schenectady-Troy, NY",
   "yr": 2019,
   "index_nsa": 197.7
 },
 {
   "place_name": "Buffalo-Cheektowaga, NY",
   "yr": 1995,
   "index_nsa": 106.34
 },
 {
   "place_name": "Buffalo-Cheektowaga, NY",
   "yr": 1996,
   "index_nsa": 105.63
 },
 {
   "place_name": "Buffalo-Cheektowaga, NY",
   "yr": 1997,
   "index_nsa": 106.2
 },
 {
   "place_name": "Buffalo-Cheektowaga, NY",
   "yr": 1998,
   "index_nsa": 102.07
 },
 {
   "place_name": "Buffalo-Cheektowaga, NY",
   "yr": 1999,
   "index_nsa": 104.28
 },
 {
   "place_name": "Buffalo-Cheektowaga, NY",
   "yr": 2000,
   "index_nsa": 106.84
 },
 {
   "place_name": "Buffalo-Cheektowaga, NY",
   "yr": 2001,
   "index_nsa": 110.3
 },
 {
   "place_name": "Buffalo-Cheektowaga, NY",
   "yr": 2002,
   "index_nsa": 115.06
 },
 {
   "place_name": "Buffalo-Cheektowaga, NY",
   "yr": 2003,
   "index_nsa": 120.56
 },
 {
   "place_name": "Buffalo-Cheektowaga, NY",
   "yr": 2004,
   "index_nsa": 128.75
 },
 {
   "place_name": "Buffalo-Cheektowaga, NY",
   "yr": 2005,
   "index_nsa": 133.11
 },
 {
   "place_name": "Buffalo-Cheektowaga, NY",
   "yr": 2006,
   "index_nsa": 139.05
 },
 {
   "place_name": "Buffalo-Cheektowaga, NY",
   "yr": 2007,
   "index_nsa": 144.47
 },
 {
   "place_name": "Buffalo-Cheektowaga, NY",
   "yr": 2008,
   "index_nsa": 145.03
 },
 {
   "place_name": "Buffalo-Cheektowaga, NY",
   "yr": 2009,
   "index_nsa": 148.22
 },
 {
   "place_name": "Buffalo-Cheektowaga, NY",
   "yr": 2010,
   "index_nsa": 149.99
 },
 {
   "place_name": "Buffalo-Cheektowaga, NY",
   "yr": 2011,
   "index_nsa": 153.06
 },
 {
   "place_name": "Buffalo-Cheektowaga, NY",
   "yr": 2012,
   "index_nsa": 154.03
 },
 {
   "place_name": "Buffalo-Cheektowaga, NY",
   "yr": 2013,
   "index_nsa": 156.65
 },
 {
   "place_name": "Buffalo-Cheektowaga, NY",
   "yr": 2014,
   "index_nsa": 163.2
 },
 {
   "place_name": "Buffalo-Cheektowaga, NY",
   "yr": 2015,
   "index_nsa": 164.99
 },
 {
   "place_name": "Buffalo-Cheektowaga, NY",
   "yr": 2016,
   "index_nsa": 176.77
 },
 {
   "place_name": "Buffalo-Cheektowaga, NY",
   "yr": 2017,
   "index_nsa": 184.02
 },
 {
   "place_name": "Buffalo-Cheektowaga, NY",
   "yr": 2018,
   "index_nsa": 202.64
 },
 {
   "place_name": "Buffalo-Cheektowaga, NY",
   "yr": 2019,
   "index_nsa": 214.36
 },
 {
   "place_name": "Nassau County-Suffolk County, NY (MSAD)",
   "yr": 1995,
   "index_nsa": 99.17
 },
 {
   "place_name": "Nassau County-Suffolk County, NY (MSAD)",
   "yr": 1996,
   "index_nsa": 101.53
 },
 {
   "place_name": "Nassau County-Suffolk County, NY (MSAD)",
   "yr": 1997,
   "index_nsa": 102.76
 },
 {
   "place_name": "Nassau County-Suffolk County, NY (MSAD)",
   "yr": 1998,
   "index_nsa": 108.44
 },
 {
   "place_name": "Nassau County-Suffolk County, NY (MSAD)",
   "yr": 1999,
   "index_nsa": 120.23
 },
 {
   "place_name": "Nassau County-Suffolk County, NY (MSAD)",
   "yr": 2000,
   "index_nsa": 137.49
 },
 {
   "place_name": "Nassau County-Suffolk County, NY (MSAD)",
   "yr": 2001,
   "index_nsa": 155.95
 },
 {
   "place_name": "Nassau County-Suffolk County, NY (MSAD)",
   "yr": 2002,
   "index_nsa": 179.3
 },
 {
   "place_name": "Nassau County-Suffolk County, NY (MSAD)",
   "yr": 2003,
   "index_nsa": 215.04
 },
 {
   "place_name": "Nassau County-Suffolk County, NY (MSAD)",
   "yr": 2004,
   "index_nsa": 242.72
 },
 {
   "place_name": "Nassau County-Suffolk County, NY (MSAD)",
   "yr": 2005,
   "index_nsa": 276.05
 },
 {
   "place_name": "Nassau County-Suffolk County, NY (MSAD)",
   "yr": 2006,
   "index_nsa": 299.05
 },
 {
   "place_name": "Nassau County-Suffolk County, NY (MSAD)",
   "yr": 2007,
   "index_nsa": 286.28
 },
 {
   "place_name": "Nassau County-Suffolk County, NY (MSAD)",
   "yr": 2008,
   "index_nsa": 279.88
 },
 {
   "place_name": "Nassau County-Suffolk County, NY (MSAD)",
   "yr": 2009,
   "index_nsa": 265.04
 },
 {
   "place_name": "Nassau County-Suffolk County, NY (MSAD)",
   "yr": 2010,
   "index_nsa": 255.87
 },
 {
   "place_name": "Nassau County-Suffolk County, NY (MSAD)",
   "yr": 2011,
   "index_nsa": 246.67
 },
 {
   "place_name": "Nassau County-Suffolk County, NY (MSAD)",
   "yr": 2012,
   "index_nsa": 235.9
 },
 {
   "place_name": "Nassau County-Suffolk County, NY (MSAD)",
   "yr": 2013,
   "index_nsa": 242.94
 },
 {
   "place_name": "Nassau County-Suffolk County, NY (MSAD)",
   "yr": 2014,
   "index_nsa": 248.89
 },
 {
   "place_name": "Nassau County-Suffolk County, NY (MSAD)",
   "yr": 2015,
   "index_nsa": 254.31
 },
 {
   "place_name": "Nassau County-Suffolk County, NY (MSAD)",
   "yr": 2016,
   "index_nsa": 262.29
 },
 {
   "place_name": "Nassau County-Suffolk County, NY (MSAD)",
   "yr": 2017,
   "index_nsa": 275.08
 },
 {
   "place_name": "Nassau County-Suffolk County, NY (MSAD)",
   "yr": 2018,
   "index_nsa": 297.84
 },
 {
   "place_name": "Nassau County-Suffolk County, NY (MSAD)",
   "yr": 2019,
   "index_nsa": 313.85
 },
 {
   "place_name": "New York-Jersey City-White Plains, NY-NJ (MSAD)",
   "yr": 1995,
   "index_nsa": 99.36
 },
 {
   "place_name": "New York-Jersey City-White Plains, NY-NJ (MSAD)",
   "yr": 1996,
   "index_nsa": 100.75
 },
 {
   "place_name": "New York-Jersey City-White Plains, NY-NJ (MSAD)",
   "yr": 1997,
   "index_nsa": 101.38
 },
 {
   "place_name": "New York-Jersey City-White Plains, NY-NJ (MSAD)",
   "yr": 1998,
   "index_nsa": 106.22
 },
 {
   "place_name": "New York-Jersey City-White Plains, NY-NJ (MSAD)",
   "yr": 1999,
   "index_nsa": 116.36
 },
 {
   "place_name": "New York-Jersey City-White Plains, NY-NJ (MSAD)",
   "yr": 2000,
   "index_nsa": 129.84
 },
 {
   "place_name": "New York-Jersey City-White Plains, NY-NJ (MSAD)",
   "yr": 2001,
   "index_nsa": 145.46
 },
 {
   "place_name": "New York-Jersey City-White Plains, NY-NJ (MSAD)",
   "yr": 2002,
   "index_nsa": 164.9
 },
 {
   "place_name": "New York-Jersey City-White Plains, NY-NJ (MSAD)",
   "yr": 2003,
   "index_nsa": 192.75
 },
 {
   "place_name": "New York-Jersey City-White Plains, NY-NJ (MSAD)",
   "yr": 2004,
   "index_nsa": 216.22
 },
 {
   "place_name": "New York-Jersey City-White Plains, NY-NJ (MSAD)",
   "yr": 2005,
   "index_nsa": 245.12
 },
 {
   "place_name": "New York-Jersey City-White Plains, NY-NJ (MSAD)",
   "yr": 2006,
   "index_nsa": 267.22
 },
 {
   "place_name": "New York-Jersey City-White Plains, NY-NJ (MSAD)",
   "yr": 2007,
   "index_nsa": 269.03
 },
 {
   "place_name": "New York-Jersey City-White Plains, NY-NJ (MSAD)",
   "yr": 2008,
   "index_nsa": 260.52
 },
 {
   "place_name": "New York-Jersey City-White Plains, NY-NJ (MSAD)",
   "yr": 2009,
   "index_nsa": 242.52
 },
 {
   "place_name": "New York-Jersey City-White Plains, NY-NJ (MSAD)",
   "yr": 2010,
   "index_nsa": 238.01
 },
 {
   "place_name": "New York-Jersey City-White Plains, NY-NJ (MSAD)",
   "yr": 2011,
   "index_nsa": 227.46
 },
 {
   "place_name": "New York-Jersey City-White Plains, NY-NJ (MSAD)",
   "yr": 2012,
   "index_nsa": 223.17
 },
 {
   "place_name": "New York-Jersey City-White Plains, NY-NJ (MSAD)",
   "yr": 2013,
   "index_nsa": 226.5
 },
 {
   "place_name": "New York-Jersey City-White Plains, NY-NJ (MSAD)",
   "yr": 2014,
   "index_nsa": 232.56
 },
 {
   "place_name": "New York-Jersey City-White Plains, NY-NJ (MSAD)",
   "yr": 2015,
   "index_nsa": 243.4
 },
 {
   "place_name": "New York-Jersey City-White Plains, NY-NJ (MSAD)",
   "yr": 2016,
   "index_nsa": 250.82
 },
 {
   "place_name": "New York-Jersey City-White Plains, NY-NJ (MSAD)",
   "yr": 2017,
   "index_nsa": 268.2
 },
 {
   "place_name": "New York-Jersey City-White Plains, NY-NJ (MSAD)",
   "yr": 2018,
   "index_nsa": 285.92
 },
 {
   "place_name": "New York-Jersey City-White Plains, NY-NJ (MSAD)",
   "yr": 2019,
   "index_nsa": 291.27
 },
 {
   "place_name": "Rochester, NY",
   "yr": 1995,
   "index_nsa": 102.76
 },
 {
   "place_name": "Rochester, NY",
   "yr": 1996,
   "index_nsa": 102.62
 },
 {
   "place_name": "Rochester, NY",
   "yr": 1997,
   "index_nsa": 101.82
 },
 {
   "place_name": "Rochester, NY",
   "yr": 1998,
   "index_nsa": 102.26
 },
 {
   "place_name": "Rochester, NY",
   "yr": 1999,
   "index_nsa": 103.57
 },
 {
   "place_name": "Rochester, NY",
   "yr": 2000,
   "index_nsa": 106.79
 },
 {
   "place_name": "Rochester, NY",
   "yr": 2001,
   "index_nsa": 111.43
 },
 {
   "place_name": "Rochester, NY",
   "yr": 2002,
   "index_nsa": 114.91
 },
 {
   "place_name": "Rochester, NY",
   "yr": 2003,
   "index_nsa": 118.77
 },
 {
   "place_name": "Rochester, NY",
   "yr": 2004,
   "index_nsa": 124.81
 },
 {
   "place_name": "Rochester, NY",
   "yr": 2005,
   "index_nsa": 127.63
 },
 {
   "place_name": "Rochester, NY",
   "yr": 2006,
   "index_nsa": 132.04
 },
 {
   "place_name": "Rochester, NY",
   "yr": 2007,
   "index_nsa": 134.98
 },
 {
   "place_name": "Rochester, NY",
   "yr": 2008,
   "index_nsa": 136.11
 },
 {
   "place_name": "Rochester, NY",
   "yr": 2009,
   "index_nsa": 138.24
 },
 {
   "place_name": "Rochester, NY",
   "yr": 2010,
   "index_nsa": 139.75
 },
 {
   "place_name": "Rochester, NY",
   "yr": 2011,
   "index_nsa": 137.75
 },
 {
   "place_name": "Rochester, NY",
   "yr": 2012,
   "index_nsa": 137.1
 },
 {
   "place_name": "Rochester, NY",
   "yr": 2013,
   "index_nsa": 142.87
 },
 {
   "place_name": "Rochester, NY",
   "yr": 2014,
   "index_nsa": 140.04
 },
 {
   "place_name": "Rochester, NY",
   "yr": 2015,
   "index_nsa": 144.66
 },
 {
   "place_name": "Rochester, NY",
   "yr": 2016,
   "index_nsa": 148.35
 },
 {
   "place_name": "Rochester, NY",
   "yr": 2017,
   "index_nsa": 150.71
 },
 {
   "place_name": "Rochester, NY",
   "yr": 2018,
   "index_nsa": 162.29
 },
 {
   "place_name": "Rochester, NY",
   "yr": 2019,
   "index_nsa": 172.07
 },
 {
   "place_name": "Syracuse, NY",
   "yr": 1995,
   "index_nsa": 98.57
 },
 {
   "place_name": "Syracuse, NY",
   "yr": 1996,
   "index_nsa": 94.32
 },
 {
   "place_name": "Syracuse, NY",
   "yr": 1997,
   "index_nsa": 92.56
 },
 {
   "place_name": "Syracuse, NY",
   "yr": 1998,
   "index_nsa": 93.36
 },
 {
   "place_name": "Syracuse, NY",
   "yr": 1999,
   "index_nsa": 95.49
 },
 {
   "place_name": "Syracuse, NY",
   "yr": 2000,
   "index_nsa": 99.09
 },
 {
   "place_name": "Syracuse, NY",
   "yr": 2001,
   "index_nsa": 104.29
 },
 {
   "place_name": "Syracuse, NY",
   "yr": 2002,
   "index_nsa": 108.86
 },
 {
   "place_name": "Syracuse, NY",
   "yr": 2003,
   "index_nsa": 118.89
 },
 {
   "place_name": "Syracuse, NY",
   "yr": 2004,
   "index_nsa": 127.44
 },
 {
   "place_name": "Syracuse, NY",
   "yr": 2005,
   "index_nsa": 133.51
 },
 {
   "place_name": "Syracuse, NY",
   "yr": 2006,
   "index_nsa": 142.73
 },
 {
   "place_name": "Syracuse, NY",
   "yr": 2007,
   "index_nsa": 143.64
 },
 {
   "place_name": "Syracuse, NY",
   "yr": 2008,
   "index_nsa": 147.2
 },
 {
   "place_name": "Syracuse, NY",
   "yr": 2009,
   "index_nsa": 142.84
 },
 {
   "place_name": "Syracuse, NY",
   "yr": 2010,
   "index_nsa": 146.45
 },
 {
   "place_name": "Syracuse, NY",
   "yr": 2011,
   "index_nsa": 142.68
 },
 {
   "place_name": "Syracuse, NY",
   "yr": 2012,
   "index_nsa": 143.05
 },
 {
   "place_name": "Syracuse, NY",
   "yr": 2013,
   "index_nsa": 146.39
 },
 {
   "place_name": "Syracuse, NY",
   "yr": 2014,
   "index_nsa": 141.83
 },
 {
   "place_name": "Syracuse, NY",
   "yr": 2015,
   "index_nsa": 149.06
 },
 {
   "place_name": "Syracuse, NY",
   "yr": 2016,
   "index_nsa": 152.11
 },
 {
   "place_name": "Syracuse, NY",
   "yr": 2017,
   "index_nsa": 159.81
 },
 {
   "place_name": "Syracuse, NY",
   "yr": 2018,
   "index_nsa": 162.58
 },
 {
   "place_name": "Syracuse, NY",
   "yr": 2019,
   "index_nsa": 171.87
 }
]